start=new Date('2022-09-08T00:00:00.000Z').valueOf();
sats=[{"OBJECT_TYPE":"PAYLOAD","BSTAR":"0.00008775200000","INCLINATION":"53.0537","OBJECT_ID":"2021-021Y","MEAN_ELEMENT_THEORY":"SGP4","EPOCH":"2022-09-07T10:15:25.111008","CENTER_NAME":"EARTH","REF_FRAME":"TEME","MEAN_ANOMALY":"267.5239","TLE_LINE1":"1 47882U 21021Y   22250.42737397  .00001026  00000-0  87752-4 0  9990","FILE":"3562217","ARG_OF_PERICENTER":"92.5900","EPHEMERIS_TYPE":"0","SEMIMAJOR_AXIS":"6925.345","RA_OF_ASC_NODE":"254.4641","OBJECT_NAME":"STARLINK-2340","ECCENTRICITY":"0.00013150","MEAN_MOTION":"15.06401108","REV_AT_EPOCH":"8354","TIME_SYSTEM":"UTC","TLE_LINE2":"2 47882  53.0537 254.4641 0001315  92.5900 267.5239 15.06401108 83545","DECAY_DATE":null,"RCS_SIZE":"LARGE","LAUNCH_DATE":"2021-03-14","GP_ID":"211964323","MEAN_MOTION_DOT":"0.00001026","CLASSIFICATION_TYPE":"U","MEAN_MOTION_DDOT":"0.0000000000000","PERIAPSIS":"546.299","NORAD_CAT_ID":"47882","APOAPSIS":"548.121","COUNTRY_CODE":"US","ELEMENT_SET_NO":"999","SITE":"AFETR","PERIOD":"95.592"},{"COUNTRY_CODE":"US","APOAPSIS":"548.079","ELEMENT_SET_NO":"999","PERIOD":"95.593","SITE":"AFETR","MEAN_MOTION_DDOT":"0.0000000000000","PERIAPSIS":"546.414","NORAD_CAT_ID":"47883","CLASSIFICATION_TYPE":"U","GP_ID":"212009333","MEAN_MOTION_DOT":"0.00001818","LAUNCH_DATE":"2021-03-14","TLE_LINE2":"2 47883  53.0544 257.4959 0001202  66.4517 293.6598 15.06389355 83545","DECAY_DATE":null,"RCS_SIZE":"LARGE","TIME_SYSTEM":"UTC","REV_AT_EPOCH":"8354","MEAN_MOTION":"15.06389355","ECCENTRICITY":"0.00012020","RA_OF_ASC_NODE":"257.4959","SEMIMAJOR_AXIS":"6925.381","OBJECT_NAME":"STARLINK-2342","EPHEMERIS_TYPE":"0","ARG_OF_PERICENTER":"66.4517","FILE":"3563022","TLE_LINE1":"1 47883U 21021Z   22250.86370195  .00001818  00000-0  14093-3 0  9994","MEAN_ANOMALY":"293.6598","REF_FRAME":"TEME","CENTER_NAME":"EARTH","EPOCH":"2022-09-07T20:43:43.848480","MEAN_ELEMENT_THEORY":"SGP4","INCLINATION":"53.0544","OBJECT_ID":"2021-021Z","BSTAR":"0.00014093000000","OBJECT_TYPE":"PAYLOAD"},{"OBJECT_TYPE":"PAYLOAD","OBJECT_ID":"2021-021AA","INCLINATION":"53.0542","BSTAR":"-0.00002734100000","REF_FRAME":"TEME","MEAN_ANOMALY":"286.7572","MEAN_ELEMENT_THEORY":"SGP4","EPOCH":"2022-09-07T10:45:56.205216","CENTER_NAME":"EARTH","TLE_LINE1":"1 47884U 21021AA  22250.44856719 -.00000689  00000-0 -27341-4 0  9998","FILE":"3562217","EPHEMERIS_TYPE":"0","ARG_OF_PERICENTER":"73.3567","MEAN_MOTION":"15.06398597","ECCENTRICITY":"0.00013690","REV_AT_EPOCH":"8323","TIME_SYSTEM":"UTC","OBJECT_NAME":"STARLINK-2343","RA_OF_ASC_NODE":"264.3674","SEMIMAJOR_AXIS":"6925.353","GP_ID":"211964825","MEAN_MOTION_DOT":"-0.00000689","CLASSIFICATION_TYPE":"U","RCS_SIZE":"LARGE","TLE_LINE2":"2 47884  53.0542 264.3674 0001369  73.3567 286.7572 15.06398597 83230","DECAY_DATE":null,"LAUNCH_DATE":"2021-03-14","PERIOD":"95.592","SITE":"AFETR","APOAPSIS":"548.166","COUNTRY_CODE":"US","ELEMENT_SET_NO":"999","NORAD_CAT_ID":"47884","PERIAPSIS":"546.270","MEAN_MOTION_DDOT":"0.0000000000000"},{"EPHEMERIS_TYPE":"0","ARG_OF_PERICENTER":"81.2199","ECCENTRICITY":"0.00013430","MEAN_MOTION":"15.06391873","TIME_SYSTEM":"UTC","REV_AT_EPOCH":"8331","RA_OF_ASC_NODE":"269.6895","SEMIMAJOR_AXIS":"6925.373","OBJECT_NAME":"STARLINK-2344","MEAN_MOTION_DOT":"0.00000052","GP_ID":"211963573","CLASSIFICATION_TYPE":"U","RCS_SIZE":"LARGE","TLE_LINE2":"2 47885  53.0535 269.6895 0001343  81.2199 278.8942 15.06391873 83319","DECAY_DATE":null,"LAUNCH_DATE":"2021-03-14","COUNTRY_CODE":"US","ELEMENT_SET_NO":"999","APOAPSIS":"548.169","SITE":"AFETR","PERIOD":"95.593","MEAN_MOTION_DDOT":"0.0000000000000","PERIAPSIS":"546.308","NORAD_CAT_ID":"47885","OBJECT_TYPE":"PAYLOAD","INCLINATION":"53.0535","OBJECT_ID":"2021-021AB","BSTAR":"0.00002239300000","REF_FRAME":"TEME","MEAN_ANOMALY":"278.8942","MEAN_ELEMENT_THEORY":"SGP4","EPOCH":"2022-09-07T09:01:46.205472","CENTER_NAME":"EARTH","TLE_LINE1":"1 47885U 21021AB  22250.37622923  .00000052  00000-0  22393-4 0  9993","FILE":"3562217"},{"SITE":"AFETR","PERIOD":"95.593","COUNTRY_CODE":"US","APOAPSIS":"548.505","ELEMENT_SET_NO":"999","PERIAPSIS":"545.988","NORAD_CAT_ID":"47886","MEAN_MOTION_DDOT":"0.0000000000000","CLASSIFICATION_TYPE":"U","GP_ID":"211970792","MEAN_MOTION_DOT":"-0.00001351","LAUNCH_DATE":"2021-03-14","TLE_LINE2":"2 47886  53.0544 259.3927 0001817  70.9782 289.1403 15.06389178 82828","RCS_SIZE":"LARGE","DECAY_DATE":null,"REV_AT_EPOCH":"8282","TIME_SYSTEM":"UTC","MEAN_MOTION":"15.06389178","ECCENTRICITY":"0.00018170","OBJECT_NAME":"STARLINK-2345","RA_OF_ASC_NODE":"259.3927","SEMIMAJOR_AXIS":"6925.382","EPHEMERIS_TYPE":"0","ARG_OF_PERICENTER":"70.9782","FILE":"3562327","TLE_LINE1":"1 47886U 21021AC  22250.44256329 -.00001351  00000-0 -71812-4 0  9990","MEAN_ANOMALY":"289.1403","REF_FRAME":"TEME","CENTER_NAME":"EARTH","EPOCH":"2022-09-07T10:37:17.468256","MEAN_ELEMENT_THEORY":"SGP4","OBJECT_ID":"2021-021AC","INCLINATION":"53.0544","BSTAR":"-0.00007181200000","OBJECT_TYPE":"PAYLOAD"},{"FILE":"3562217","TLE_LINE1":"1 47887U 21021AD  22250.33430695 -.00001257  00000-0 -65484-4 0  9992","MEAN_ANOMALY":"282.7131","REF_FRAME":"TEME","EPOCH":"2022-09-07T08:01:24.120480","CENTER_NAME":"EARTH","MEAN_ELEMENT_THEORY":"SGP4","INCLINATION":"53.0530","OBJECT_ID":"2021-021AD","BSTAR":"-0.00006548400000","OBJECT_TYPE":"PAYLOAD","COUNTRY_CODE":"US","ELEMENT_SET_NO":"999","APOAPSIS":"548.099","PERIOD":"95.592","SITE":"AFETR","MEAN_MOTION_DDOT":"0.0000000000000","PERIAPSIS":"546.349","NORAD_CAT_ID":"47887","CLASSIFICATION_TYPE":"U","GP_ID":"211965075","MEAN_MOTION_DOT":"-0.00001257","LAUNCH_DATE":"2021-03-14","DECAY_DATE":null,"TLE_LINE2":"2 47887  53.0530 264.8537 0001263  77.4000 282.7131 15.06396558 83224","RCS_SIZE":"LARGE","REV_AT_EPOCH":"8322","TIME_SYSTEM":"UTC","MEAN_MOTION":"15.06396558","ECCENTRICITY":"0.00012630","SEMIMAJOR_AXIS":"6925.359","RA_OF_ASC_NODE":"264.8537","OBJECT_NAME":"STARLINK-2346","EPHEMERIS_TYPE":"0","ARG_OF_PERICENTER":"77.4000"},{"BSTAR":"-0.00003973900000","OBJECT_ID":"2021-021AE","INCLINATION":"53.0542","OBJECT_TYPE":"PAYLOAD","FILE":"3563022","TLE_LINE1":"1 47888U 21021AE  22250.82176941 -.00000873  00000-0 -39739-4 0  9995","CENTER_NAME":"EARTH","EPOCH":"2022-09-07T19:43:20.877024","MEAN_ELEMENT_THEORY":"SGP4","MEAN_ANOMALY":"294.9219","REF_FRAME":"TEME","OBJECT_NAME":"STARLINK-2348","RA_OF_ASC_NODE":"252.6865","SEMIMAJOR_AXIS":"6925.337","REV_AT_EPOCH":"8344","TIME_SYSTEM":"UTC","MEAN_MOTION":"15.06403887","ECCENTRICITY":"0.00014900","ARG_OF_PERICENTER":"65.1925","EPHEMERIS_TYPE":"0","NORAD_CAT_ID":"47888","PERIAPSIS":"546.170","MEAN_MOTION_DDOT":"0.0000000000000","SITE":"AFETR","PERIOD":"95.592","COUNTRY_CODE":"US","ELEMENT_SET_NO":"999","APOAPSIS":"548.234","LAUNCH_DATE":"2021-03-14","RCS_SIZE":"LARGE","TLE_LINE2":"2 47888  53.0542 252.6865 0001490  65.1925 294.9219 15.06403887 83449","DECAY_DATE":null,"CLASSIFICATION_TYPE":"U","GP_ID":"212008082","MEAN_MOTION_DOT":"-0.00000873"},{"INCLINATION":"53.0537","OBJECT_ID":"2021-021AF","BSTAR":"-0.00007670200000","OBJECT_TYPE":"PAYLOAD","FILE":"3563022","TLE_LINE1":"1 47889U 21021AF  22250.70013524 -.00001423  00000-0 -76702-4 0  9993","MEAN_ANOMALY":"300.4517","REF_FRAME":"TEME","EPOCH":"2022-09-07T16:48:11.684736","CENTER_NAME":"EARTH","MEAN_ELEMENT_THEORY":"SGP4","REV_AT_EPOCH":"8347","TIME_SYSTEM":"UTC","ECCENTRICITY":"0.00014690","MEAN_MOTION":"15.06391255","SEMIMAJOR_AXIS":"6925.375","RA_OF_ASC_NODE":"253.2380","OBJECT_NAME":"STARLINK-2349","EPHEMERIS_TYPE":"0","ARG_OF_PERICENTER":"59.6617","COUNTRY_CODE":"US","ELEMENT_SET_NO":"999","APOAPSIS":"548.258","SITE":"AFETR","PERIOD":"95.593","MEAN_MOTION_DDOT":"0.0000000000000","NORAD_CAT_ID":"47889","PERIAPSIS":"546.223","CLASSIFICATION_TYPE":"U","GP_ID":"212008332","MEAN_MOTION_DOT":"-0.00001423","LAUNCH_DATE":"2021-03-14","RCS_SIZE":"LARGE","TLE_LINE2":"2 47889  53.0537 253.2380 0001469  59.6617 300.4517 15.06391255 83477","DECAY_DATE":null},{"OBJECT_TYPE":"PAYLOAD","BSTAR":"0.00255720000000","INCLINATION":"53.0516","OBJECT_ID":"2021-021AG","MEAN_ELEMENT_THEORY":"SGP4","EPOCH":"2022-09-07T11:17:55.816224","CENTER_NAME":"EARTH","REF_FRAME":"TEME","MEAN_ANOMALY":"84.4289","TLE_LINE1":"1 47890U 21021AG  22250.47078491  .00158343  00000-0  25572-2 0  9992","FILE":"3562240","ARG_OF_PERICENTER":"275.5808","EPHEMERIS_TYPE":"0","RA_OF_ASC_NODE":"184.7345","SEMIMAJOR_AXIS":"6789.564","OBJECT_NAME":"STARLINK-2350","MEAN_MOTION":"15.51814965","ECCENTRICITY":"0.00079890","REV_AT_EPOCH":"8388","TIME_SYSTEM":"UTC","TLE_LINE2":"2 47890  53.0516 184.7345 0007989 275.5808  84.4289 15.51814965 83887","DECAY_DATE":null,"RCS_SIZE":"LARGE","LAUNCH_DATE":"2021-03-14","MEAN_MOTION_DOT":"0.00158343","GP_ID":"211968816","CLASSIFICATION_TYPE":"U","MEAN_MOTION_DDOT":"0.0000000000000","PERIAPSIS":"406.005","NORAD_CAT_ID":"47890","APOAPSIS":"416.853","COUNTRY_CODE":"US","ELEMENT_SET_NO":"999","PERIOD":"92.795","SITE":"AFETR"},{"GP_ID":"211964575","MEAN_MOTION_DOT":"-0.00001602","CLASSIFICATION_TYPE":"U","TLE_LINE2":"2 47891  53.0555 264.3966 0001663  61.2947 298.8209 15.06391563 83407","DECAY_DATE":null,"RCS_SIZE":"LARGE","LAUNCH_DATE":"2021-03-14","SITE":"AFETR","PERIOD":"95.593","COUNTRY_CODE":"US","ELEMENT_SET_NO":"999","APOAPSIS":"548.391","NORAD_CAT_ID":"47891","PERIAPSIS":"546.088","MEAN_MOTION_DDOT":"0.0000000000000","EPHEMERIS_TYPE":"0","ARG_OF_PERICENTER":"61.2947","ECCENTRICITY":"0.00016630","MEAN_MOTION":"15.06391563","REV_AT_EPOCH":"8340","TIME_SYSTEM":"UTC","OBJECT_NAME":"STARLINK-2351","SEMIMAJOR_AXIS":"6925.374","RA_OF_ASC_NODE":"264.3966","REF_FRAME":"TEME","MEAN_ANOMALY":"298.8209","MEAN_ELEMENT_THEORY":"SGP4","EPOCH":"2022-09-07T10:35:19.503744","CENTER_NAME":"EARTH","TLE_LINE1":"1 47891U 21021AH  22250.44119796 -.00001602  00000-0 -88668-4 0  9998","FILE":"3562217","OBJECT_TYPE":"PAYLOAD","OBJECT_ID":"2021-021AH","INCLINATION":"53.0555","BSTAR":"-0.00008866800000"}];
